[{"OBJECT_NAME":"SARAL","OBJECT_ID":"2013-009A","EPOCH":"2026-03-09T22:48:24.420096","MEAN_MOTION":14.32828644,"ECCENTRICITY":0.00014927,"INCLINATION":98.5556,"RA_OF_ASC_NODE":256.7632,"ARG_OF_PERICENTER":179.752,"MEAN_ANOMALY":180.3665,"EPHEMERIS_TYPE":0,"CLASSIFICATION_TYPE":"U","NORAD_CAT_ID":39086,"ELEMENT_SET_NO":999,"REV_AT_EPOCH":68139,"BSTAR":7.1114041e-5,"MEAN_MOTION_DOT":1.5e-6,"MEAN_MOTION_DDOT":0},{"OBJECT_NAME":"METEOR 2-8 DEB","OBJECT_ID":"1982-025G","EPOCH":"2026-03-07T06:10:12.617472","MEAN_MOTION":14.37274749,"ECCENTRICITY":0.0019857,"INCLINATION":82.5134,"RA_OF_ASC_NODE":251.9137,"ARG_OF_PERICENTER":253.337,"MEAN_ANOMALY":106.564,"EPHEMERIS_TYPE":0,"CLASSIFICATION_TYPE":"U","NORAD_CAT_ID":36322,"ELEMENT_SET_NO":999,"REV_AT_EPOCH":64582,"BSTAR":0.0031791,"MEAN_MOTION_DOT":9.517e-5,"MEAN_MOTION_DDOT":0}]
